NORAD_CAT_ID,OBJECT_NAME,OBJECT_TYPE,EPOCH,MEAN_MOTION,ECCENTRICITY,INCLINATION,RA_OF_ASC_NODE,ARG_OF_PERICENTER,MEAN_ANOMALY,BSTAR,MEAN_MOTION_DOT,MEAN_MOTION_DDOT,TLE_LINE0,TLE_LINE1,TLE_LINE2,SEMIMAJOR_AXIS,PERIOD,APOGEE,PERIGEE,DECAYED
53782.0,STARLINK-4679,PAYLOAD,2024-04-05 00:17:09,15.08845487,0.0001297,53.2176,193.1289,90.4422,269.6719,5.3199e-05,5.59e-06,0.0,0 STARLINK-4679,1 53782U 22111K   24096.01191710  .00000559  00000-0  53199-4 0  9993,2 53782  53.2176 193.1289 0001297  90.4422 269.6719 15.08845487 86659,6917.864,95.437,540.626,538.831,0.0
53782.0,STARLINK-4679,PAYLOAD,2024-04-05 13:00:14,15.08846899,0.0001299,53.2176,190.7506,94.4311,265.6829,0.00013871,1.921e-05,0.0,0 STARLINK-4679,1 53782U 22111K   24096.54183282  .00001921  00000-0  13871-3 0  9992,2 53782  53.2176 190.7506 0001299  94.4311 265.6829 15.08846899 87542,6917.859,95.437,540.623,538.826,0.0
53782.0,STARLINK-4679,PAYLOAD,2024-04-05 16:11:00,15.08850291,0.0001357,53.2179,190.1558,94.3079,265.8069,0.00012657,1.728e-05,0.0,0 STARLINK-4679,1 53782U 22111K   24096.67431081  .00001728  00000-0  12657-3 0  9995,2 53782  53.2179 190.1558 0001357  94.3079 265.8069 15.08850291 87562,6917.849,95.437,540.653,538.775,0.0
53782.0,STARLINK-4679,PAYLOAD,2024-04-06 12:51:01,15.08838379,0.000127,53.2182,186.2905,94.0907,266.023,0.00010166,1.33e-05,0.0,0 STARLINK-4679,1 53782U 22111K   24097.53543690  .00001330  00000-0  10166-3 0  9993,2 53782  53.2182 186.2905 0001270  94.0907 266.0230 15.08838379 86889,6917.885,95.438,540.629,538.872,0.0
53782.0,STARLINK-4679,PAYLOAD,2024-04-06 22:23:20,15.08846086,0.0001567,53.2182,184.5062,91.9415,268.1757,8.6269e-05,1.085e-05,0.0,0 STARLINK-4679,1 53782U 22111K   24097.93287174  .00001085  00000-0  86269-4 0  9994,2 53782  53.2182 184.5062 0001567  91.9415 268.1757 15.08846086 87751,6917.862,95.437,540.811,538.643,0.0
53782.0,STARLINK-4679,PAYLOAD,2024-04-07 09:31:03,15.08830432,0.0001898,53.2184,182.4265,110.5534,249.5662,-7.3504e-05,-1.457e-05,0.0,0 STARLINK-4679,1 53782U 22111K   24098.39656738 -.00001457  00000-0 -73504-4 0  9994,2 53782  53.2184 182.4265 0001898 110.5534 249.5662 15.08830432 87017,6917.91,95.438,541.088,538.462,0.0
53782.0,STARLINK-4679,PAYLOAD,2024-04-07 14:17:12,15.08830762,0.0001485,53.2176,181.5331,95.8323,264.2839,-0.00011157,-2.063e-05,0.0,0 STARLINK-4679,1 53782U 22111K   24098.59528932 -.00002063  00000-0 -11157-3 0  9999,2 53782  53.2176 181.5331 0001485  95.8323 264.2839 15.08830762 87853,6917.909,95.438,540.801,538.746,0.0
53782.0,STARLINK-4679,PAYLOAD,2024-04-07 22:14:08,15.08837317,0.0001445,53.2173,180.0456,92.4086,267.7072,-2.1209e-05,-6.25e-06,0.0,0 STARLINK-4679,1 53782U 22111K   24098.92648359 -.00000625  00000-0 -21209-4 0  9994,2 53782  53.2173 180.0456 0001445  92.4086 267.7072 15.08837317 87903,6917.889,95.438,540.753,538.754,0.0
53782.0,STARLINK-4679,PAYLOAD,2024-04-08 09:21:50,15.08836977,0.0001534,53.2187,177.9654,92.9778,267.139,9.6835e-05,1.253e-05,0.0,0 STARLINK-4679,1 53782U 22111K   24099.39016338  .00001253  00000-0  96835-4 0  9995,2 53782  53.2187 177.9654 0001534  92.9778 267.1390 15.08836977 87970,6917.89,95.438,540.816,538.693,0.0
53782.0,STARLINK-4679,PAYLOAD,2024-04-08 22:04:52,15.08894925,0.0001707,53.2185,175.586,103.3667,256.7515,-0.00064102,-0.00010491,0.0,0 STARLINK-4679,1 53782U 22111K   24099.92005510 -.00010491  00000-0 -64102-3 0  9991,2 53782  53.2185 175.5860 0001707 103.3667 256.7515 15.08894925 88057,6917.713,95.434,540.758,538.397,0.0
53782.0,STARLINK-4679,PAYLOAD,2024-04-09 09:12:37,15.0883123,0.0001857,53.2159,173.5041,87.789,272.3315,0.00017633,2.519e-05,0.0,0 STARLINK-4679,1 53782U 22111K   24100.38376916  .00002519  00000-0  17633-3 0  9992,2 53782  53.2159 173.5041 0001857  87.7890 272.3315 15.08831230 87316,6917.907,95.438,541.057,538.488,0.0
53782.0,STARLINK-4679,PAYLOAD,2024-04-09 21:55:42,15.08840484,0.0001974,53.2157,171.1231,82.7991,277.3225,0.00012539,1.708e-05,0.0,0 STARLINK-4679,1 53782U 22111K   24100.91368574  .00001708  00000-0  12539-3 0  9991,2 53782  53.2157 171.1231 0001974  82.7991 277.3225 15.08840484 88201,6917.879,95.438,541.109,538.378,0.0
53782.0,STARLINK-4679,PAYLOAD,2024-04-10 04:17:14,15.08842985,0.0001811,53.2135,169.9333,83.5693,276.5505,0.00015977,2.256e-05,0.0,0 STARLINK-4679,1 53782U 22111K   24101.17864375  .00002256  00000-0  15977-3 0  9998,2 53782  53.2135 169.9333 0001811  83.5693 276.5505 15.08842985 87437,6917.871,95.437,540.989,538.483,0.0
53782.0,STARLINK-4679,PAYLOAD,2024-04-10 10:38:47,15.08839832,0.0001424,53.2121,168.7436,85.1138,275.0016,9.9477e-05,1.296e-05,0.0,0 STARLINK-4679,1 53782U 22111K   24101.44360438  .00001296  00000-0  99477-4 0  9990,2 53782  53.2121 168.7436 0001424  85.1138 275.0016 15.08839832 88287,6917.881,95.438,540.731,538.761,0.0
53782.0,STARLINK-4679,PAYLOAD,2024-04-10 21:46:28,15.08845487,0.0001401,53.2153,166.6642,86.5373,273.5779,0.00015487,2.178e-05,0.0,0 STARLINK-4679,1 53782U 22111K   24101.90727873  .00002178  00000-0  15487-3 0  9999,2 53782  53.2153 166.6642 0001401  86.5373 273.5779 15.08845487 88359,6917.864,95.437,540.698,538.759,0.0
53782.0,STARLINK-4679,PAYLOAD,2024-04-11 10:29:32,15.08883282,0.0001526,53.2138,164.2832,96.0953,264.0213,0.00066973,0.00010399,0.0,0 STARLINK-4679,1 53782U 22111K   24102.43717767  .00010399  00000-0  66973-3 0  9999,2 53782  53.2138 164.2832 0001526  96.0953 264.0213 15.08883282 87627,6917.748,95.435,540.669,538.557,0.0
53782.0,STARLINK-4679,PAYLOAD,2024-04-12 10:20:21,15.0882734,0.0001372,53.2151,159.8233,95.3769,264.738,-0.00017592,-3.086e-05,0.0,0 STARLINK-4679,1 53782U 22111K   24103.43080479 -.00003086  00000-0 -17592-3 0  9993,2 53782  53.2151 159.8233 0001372  95.3769 264.7380 15.08827340 87774,6917.919,95.438,540.733,538.835,0.0
53782.0,STARLINK-4679,PAYLOAD,2024-04-13 08:35:45,15.08836023,0.000134,53.2146,155.6621,74.2391,285.8749,6.8142e-05,7.97e-06,0.0,0 STARLINK-4679,1 53782U 22111K   24104.35816652  .00000797  00000-0  68142-4 0  9997,2 53782  53.2146 155.6621 0001340  74.2391 285.8749 15.08836023 87912,6917.893,95.438,540.685,538.831,0.0
53782.0,STARLINK-4679,PAYLOAD,2024-04-14 10:01:55,15.08843275,0.0001297,53.2151,150.8998,83.5231,276.5909,0.00035672,5.394e-05,0.0,0 STARLINK-4679,1 53782U 22111K   24105.41800797  .00005394  00000-0  35672-3 0  9997,2 53782  53.2151 150.8998 0001297  83.5231 276.5909 15.08843275 88079,6917.87,95.437,540.633,538.838,0.0
53782.0,STARLINK-4679,PAYLOAD,2024-04-15 08:17:19,15.08847609,0.0001441,53.2159,146.7383,93.8357,266.28,0.00016399,2.323e-05,0.0,0 STARLINK-4679,1 53782U 22111K   24106.34536372  .00002323  00000-0  16399-3 0  9999,2 53782  53.2159 146.7383 0001441  93.8357 266.2800 15.08847609 89020,6917.857,95.437,540.719,538.725,0.0
53782.0,STARLINK-4679,PAYLOAD,2024-04-15 19:25:01,15.08851137,0.0001416,53.216,144.6573,88.2632,271.8522,0.00020455,2.97e-05,0.0,0 STARLINK-4679,1 53782U 22111K   24106.80904069  .00002970  00000-0  20455-3 0  9998,2 53782  53.2160 144.6573 0001416  88.2632 271.8522 15.08851137 88287,6917.846,95.437,540.691,538.732,0.0
53782.0,STARLINK-4679,PAYLOAD,2024-04-16 11:18:52,15.0884325,0.0001677,53.2166,141.6851,89.3704,270.748,0.00010994,1.462e-05,0.0,0 STARLINK-4679,1 53782U 22111K   24107.47144601  .00001462  00000-0  10994-3 0  9992,2 53782  53.2166 141.6851 0001677  89.3704 270.7480 15.08843250 88389,6917.87,95.437,540.896,538.575,0.0
53782.0,STARLINK-4679,PAYLOAD,2024-04-17 09:34:16,15.08846896,0.000153,53.2154,137.5226,93.5002,266.6165,0.00020549,2.985e-05,0.0,0 STARLINK-4679,1 53782U 22111K   24108.39880278  .00002985  00000-0  20549-3 0  9999,2 53782  53.2154 137.5226 0001530  93.5002 266.6165 15.08846896 89331,6917.859,95.437,540.783,538.666,0.0
53782.0,STARLINK-4679,PAYLOAD,2024-04-18 12:35:51,15.08832503,0.0001407,53.2165,132.4653,98.0178,262.0973,1.0284e-05,-1.24e-06,0.0,0 STARLINK-4679,1 53782U 22111K   24109.52489598 -.00000124  00000-0  10284-4 0  9995,2 53782  53.2165 132.4653 0001407  98.0178 262.0973 15.08832503 88693,6917.903,95.438,540.742,538.795,0.0
53782.0,STARLINK-4679,PAYLOAD,2024-04-19 07:40:28,15.08839772,0.0001343,53.2152,128.9023,131.3358,228.775,5.2085e-05,5.41e-06,0.0,0 STARLINK-4679,1 53782U 22111K   24110.31977094  .00000541  00000-0  52085-4 0  9994,2 53782  53.2152 128.9023 0001343 131.3358 228.7750 15.08839772 88811,6917.881,95.438,540.675,538.817,0.0
53782.0,STARLINK-4679,PAYLOAD,2024-04-20 04:20:28,15.08860508,0.0001234,53.2168,125.0299,53.5774,306.5332,-1.1929e-05,-4.78e-06,0.0,0 STARLINK-4679,1 53782U 22111K   24111.18088471 -.00000478  00000-0 -11929-4 0  9995,2 53782  53.2168 125.0299 0001234  53.5774 306.5332 15.08860508 88943,6917.818,95.436,540.536,538.829,0.0
53782.0,STARLINK-4679,PAYLOAD,2024-04-20 10:42:00,15.08859882,0.000143,53.2157,123.8398,100.0532,260.0622,0.00043352,6.622e-05,0.0,0 STARLINK-4679,1 53782U 22111K   24111.44584260  .00006622  00000-0  43352-3 0  9990,2 53782  53.2157 123.8398 0001430 100.0532 260.0622 15.08859882 89798,6917.82,95.436,540.674,538.695,0.0
53782.0,STARLINK-4679,PAYLOAD,2024-04-21 04:11:15,15.08842974,0.0001669,53.2164,120.5595,110.7913,249.3258,3.7706e-05,3.12e-06,0.0,0 STARLINK-4679,1 53782U 22111K   24112.17448916  .00000312  00000-0  37706-4 0  9995,2 53782  53.2164 120.5595 0001669 110.7913 249.3258 15.08842974 89096,6917.871,95.437,540.891,538.582,0.0
53782.0,STARLINK-4679,PAYLOAD,2024-04-21 07:22:03,15.08820889,0.0001589,53.2164,119.9754,78.9411,281.176,-0.00028268,-4.782e-05,0.0,0 STARLINK-4679,1 53782U 22111K   24112.30698203 -.00004782  00000-0 -28268-3 0  9995,2 53782  53.2164 119.9754 0001589  78.9411 281.1760 15.08820889 89929,6917.939,95.439,540.903,538.705,0.0
53782.0,STARLINK-4679,PAYLOAD,2024-04-22 04:02:03,15.08831019,0.0001545,53.2153,116.1102,72.1565,287.9596,-0.00012544,-2.283e-05,0.0,0 STARLINK-4679,1 53782U 22111K   24113.16810166 -.00002283  00000-0 -12544-3 0  9998,2 53782  53.2153 116.1102 0001545  72.1565 287.9596 15.08831019 89244,6917.908,95.438,540.842,538.704,0.0
